[{"OBJECT_NAME":"SDA_1679","OBJECT_ID":"2025-230R","EPOCH":"2026-03-09T17:52:28.680096","MEAN_MOTION":13.85334515,"ECCENTRICITY":0.0004897,"INCLINATION":81.3013,"RA_OF_ASC_NODE":303.8521,"ARG_OF_PERICENTER":108.9978,"MEAN_ANOMALY":251.171,"EPHEMERIS_TYPE":0,"CLASSIFICATION_TYPE":"U","NORAD_CAT_ID":65989,"ELEMENT_SET_NO":999,"REV_AT_EPOCH":2005,"BSTAR":0.00022111439,"MEAN_MOTION_DOT":2.63e-6,"MEAN_MOTION_DDOT":0},{"OBJECT_NAME":"SL-8 R\/B","OBJECT_ID":"1987-009B","EPOCH":"2026-03-09T22:29:36.299616","MEAN_MOTION":13.77044583,"ECCENTRICITY":0.00309244,"INCLINATION":82.9171,"RA_OF_ASC_NODE":51.4038,"ARG_OF_PERICENTER":277.3291,"MEAN_ANOMALY":139.3913,"EPHEMERIS_TYPE":0,"CLASSIFICATION_TYPE":"U","NORAD_CAT_ID":17360,"ELEMENT_SET_NO":999,"REV_AT_EPOCH":96464,"BSTAR":7.1598878e-5,"MEAN_MOTION_DOT":8.6e-7,"MEAN_MOTION_DDOT":0}]
